ONEWEB-0410             
1 51622U 22012A   24063.84400893  .00000022  00000+0  22998-4 0  9991
2 51622  87.9260 172.0163 0002831 124.4792 235.6607 13.17650322103691
ONEWEB-0411             
1 51623U 22012B   24063.89120645 -.00000006  00000+0 -53044-4 0  9991
2 51623  87.8968 202.1948 0001330 107.6869 252.4404 13.10376245 99893
ONEWEB-0415             
1 51624U 22012C   24063.88796935 -.00000098  00000+0 -31837-3 0  9998
2 51624  87.8963 202.2225 0001274 111.4848 248.6415 13.10373208 99890
ONEWEB-0416             
1 51625U 22012D   24063.89934764  .00000513  00000+0  14321-2 0  9992
2 51625  87.8969 202.2087 0001686 104.4123 255.7191 13.10376115 99933
ONEWEB-0422             
1 51626U 22012E   24063.85349485 -.00000120  00000+0 -34159-3 0  9997
2 51626  87.9264 172.0123 0001939  83.2039 276.9313 13.17649014103800
ONEWEB-0423             
1 51627U 22012F   24063.84716072  .00000054  00000+0  10546-3 0  9995
2 51627  87.9266 172.0127 0001916 105.3799 254.7544 13.17650574103691
ONEWEB-0425             
1 51628U 22012G   24063.83274012  .00000701  00000+0  19727-2 0  9996
2 51628  87.8960 202.2088 0002117 105.4422 254.6940 13.10373606 99922
ONEWEB-0428             
1 51629U 22012H   24063.88958502 -.00000036  00000+0 -13803-3 0  9998
2 51629  87.8966 202.2116 0001441  89.5180 270.6112 13.10376329 99893
